[{"OBJECT_NAME":"FLOCK 4G-21","OBJECT_ID":"2025-009AU","EPOCH":"2026-03-09T04:40:37.351200","MEAN_MOTION":15.28381075,"ECCENTRICITY":4.655e-5,"INCLINATION":97.4032,"RA_OF_ASC_NODE":151.1274,"ARG_OF_PERICENTER":329.5782,"MEAN_ANOMALY":30.5431,"EPHEMERIS_TYPE":0,"CLASSIFICATION_TYPE":"U","NORAD_CAT_ID":62651,"ELEMENT_SET_NO":999,"REV_AT_EPOCH":6367,"BSTAR":0.00049618643,"MEAN_MOTION_DOT":0.00013648,"MEAN_MOTION_DDOT":0},{"OBJECT_NAME":"STARLINK-33836","OBJECT_ID":"2025-083J","EPOCH":"2026-03-09T03:58:07.311360","MEAN_MOTION":15.27557541,"ECCENTRICITY":9.73e-5,"INCLINATION":43.0029,"RA_OF_ASC_NODE":8.4357,"ARG_OF_PERICENTER":172.3981,"MEAN_ANOMALY":187.6886,"EPHEMERIS_TYPE":0,"CLASSIFICATION_TYPE":"U","NORAD_CAT_ID":63642,"ELEMENT_SET_NO":999,"REV_AT_EPOCH":4998,"BSTAR":1.9221575e-5,"MEAN_MOTION_DOT":2.67e-6,"MEAN_MOTION_DDOT":0}]
